NORAD_CAT_ID,OBJECT_NAME,OBJECT_TYPE,EPOCH,MEAN_MOTION,ECCENTRICITY,INCLINATION,RA_OF_ASC_NODE,ARG_OF_PERICENTER,MEAN_ANOMALY,BSTAR,MEAN_MOTION_DOT,MEAN_MOTION_DDOT,TLE_LINE0,TLE_LINE1,TLE_LINE2,SEMIMAJOR_AXIS,PERIOD,APOGEE,PERIGEE,DECAYED
53548.0,STARLINK-4513,PAYLOAD,2023-05-28 03:46:29,15.08839964,7.02e-05,53.2168,307.5118,90.4629,269.6444,0.00011462,1.537e-05,0.0,0 STARLINK-4513,1 53548U 22101X   23148.15728923  .00001537  00000-0  11462-3 0  9999,2 53548  53.2168 307.5118 0000702  90.4629 269.6444 15.08839964 42842,6917.88,95.438,540.231,539.26,0.0
53548.0,STARLINK-4513,PAYLOAD,2023-05-28 18:04:57,15.08847933,7.1e-05,53.2165,304.8359,87.2576,272.8497,0.00020838,3.031e-05,0.0,0 STARLINK-4513,1 53548U 22101X   23148.75344589  .00003031  00000-0  20838-3 0  9995,2 53548  53.2165 304.8359 0000710  87.2576 272.8497 15.08847933 42939,6917.856,95.437,540.212,539.23,0.0
53548.0,STARLINK-4513,PAYLOAD,2023-05-29 03:37:16,15.0884297,7.94e-05,53.2168,303.0516,69.4119,290.6958,0.00013161,1.808e-05,0.0,0 STARLINK-4513,1 53548U 22101X   23149.15088847  .00001808  00000-0  13161-3 0  9993,2 53548  53.2168 303.0516 0000794  69.4119 290.6958 15.08842970 42997,6917.871,95.437,540.286,539.187,0.0
53548.0,STARLINK-4513,PAYLOAD,2023-05-29 14:44:59,15.0883891,7.42e-05,53.2173,300.97,77.0822,283.0253,9.3367e-05,1.199e-05,0.0,0 STARLINK-4513,1 53548U 22101X   23149.61457239  .00001199  00000-0  93367-4 0  9999,2 53548  53.2173 300.9700 0000742  77.0822 283.0253 15.08838910 43065,6917.884,95.438,540.262,539.235,0.0
53548.0,STARLINK-4513,PAYLOAD,2023-05-29 16:20:22,15.08840061,6.94e-05,53.2174,300.6723,77.9287,282.1783,9.785e-05,1.27e-05,0.0,0 STARLINK-4513,1 53548U 22101X   23149.68081113  .00001270  00000-0  97850-4 0  9991,2 53548  53.2174 300.6723 0000694  77.9287 282.1783 15.08840061 43077,6917.88,95.438,540.225,539.265,0.0
53548.0,STARLINK-4513,PAYLOAD,2023-05-30 13:00:22,15.08841628,7.37e-05,53.2171,296.8068,75.9772,284.1302,5.5881e-05,6.02e-06,0.0,0 STARLINK-4513,1 53548U 22101X   23150.54192986  .00000602  00000-0  55881-4 0  9995,2 53548  53.2171 296.8068 0000737  75.9772 284.1302 15.08841628 43201,6917.875,95.437,540.25,539.231,0.0
53548.0,STARLINK-4513,PAYLOAD,2023-05-30 16:11:08,15.08846878,7.7e-05,53.2174,296.2115,75.9167,284.1911,3.8037e-05,3.18e-06,0.0,0 STARLINK-4513,1 53548U 22101X   23150.67440674  .00000318  00000-0  38037-4 0  9997,2 53548  53.2174 296.2115 0000770  75.9167 284.1911 15.08846878 43226,6917.859,95.437,540.257,539.192,0.0
53548.0,STARLINK-4513,PAYLOAD,2023-05-31 09:40:23,15.08836352,8.31e-05,53.2169,292.9414,68.6229,291.4852,5.5382e-05,5.94e-06,0.0,0 STARLINK-4513,1 53548U 22101X   23151.40305210  .00000594  00000-0  55382-4 0  9993,2 53548  53.2169 292.9414 0000831  68.6229 291.4852 15.08836352 43334,6917.892,95.438,540.331,539.182,0.0
53548.0,STARLINK-4513,PAYLOAD,2023-05-31 14:26:32,15.08839354,7.99e-05,53.217,292.0492,71.1649,288.943,8.1198e-05,1.005e-05,0.0,0 STARLINK-4513,1 53548U 22101X   23151.60176924  .00001005  00000-0  81198-4 0  9995,2 53548  53.2170 292.0492 0000799  71.1649 288.9430 15.08839354 43362,6917.882,95.438,540.3,539.195,0.0
53548.0,STARLINK-4513,PAYLOAD,2023-05-31 16:01:55,15.08843206,7.89e-05,53.2172,291.7517,71.4959,288.6119,9.1124e-05,1.163e-05,0.0,0 STARLINK-4513,1 53548U 22101X   23151.66800646  .00001163  00000-0  91124-4 0  9991,2 53548  53.2172 291.7517 0000789  71.4959 288.6119 15.08843206 43377,6917.871,95.437,540.281,539.19,0.0
53548.0,STARLINK-4513,PAYLOAD,2023-06-02 01:25:01,15.08840617,6.35e-05,53.2176,285.505,73.9222,286.184,-1.4282e-05,-5.15e-06,0.0,0 STARLINK-4513,1 53548U 22101X   23153.05905034 -.00000515  00000-0 -14282-4 0  9995,2 53548  53.2176 285.5050 0000635  73.9222 286.1840 15.08840617 43584,6917.879,95.438,540.183,539.304,0.0
53548.0,STARLINK-4513,PAYLOAD,2023-06-02 09:21:58,15.08832235,7.68e-05,53.2169,284.0208,78.2221,281.8857,5.8643e-06,-1.94e-06,0.0,0 STARLINK-4513,1 53548U 22101X   23153.39025726 -.00000194  00000-0  58643-5 0  9995,2 53548  53.2169 284.0208 0000768  78.2221 281.8857 15.08832235 43632,6917.904,95.438,540.3,539.238,0.0
53548.0,STARLINK-4513,PAYLOAD,2023-06-02 14:08:07,15.08835457,8.72e-05,53.2176,283.1305,71.6543,288.4544,4.4233e-05,4.16e-06,0.0,0 STARLINK-4513,1 53548U 22101X   23153.58897546  .00000416  00000-0  44233-4 0  9998,2 53548  53.2176 283.1305 0000872  71.6543 288.4544 15.08835457 43666,6917.894,95.438,540.363,539.156,0.0
53548.0,STARLINK-4513,PAYLOAD,2023-06-02 15:43:30,15.08836637,8.19e-05,53.2169,282.8327,74.1051,286.0031,5.3163e-05,5.58e-06,0.0,0 STARLINK-4513,1 53548U 22101X   23153.65521437  .00000558  00000-0  53163-4 0  9998,2 53548  53.2169 282.8327 0000819  74.1051 286.0031 15.08836637 43678,6917.891,95.438,540.322,539.189,0.0
53548.0,STARLINK-4513,PAYLOAD,2023-06-03 13:58:54,15.08838282,7.15e-05,53.2167,278.6704,94.3747,265.7327,2.5912e-05,1.25e-06,0.0,0 STARLINK-4513,1 53548U 22101X   23154.58257690  .00000125  00000-0  25912-4 0  9999,2 53548  53.2167 278.6704 0000715  94.3747 265.7327 15.08838282 43815,6917.886,95.438,540.245,539.256,0.0
53548.0,STARLINK-4513,PAYLOAD,2023-06-03 15:34:17,15.08839776,7.72e-05,53.2168,278.3728,91.9583,268.1498,3.8733e-05,3.29e-06,0.0,0 STARLINK-4513,1 53548U 22101X   23154.64881590  .00000329  00000-0  38733-4 0  9999,2 53548  53.2168 278.3728 0000772  91.9583 268.1498 15.08839776 43829,6917.881,95.438,540.28,539.212,0.0
53548.0,STARLINK-4513,PAYLOAD,2023-06-04 13:49:41,15.08839444,7.46e-05,53.2165,274.2095,103.0394,257.0682,7.3434e-05,8.81e-06,0.0,0 STARLINK-4513,1 53548U 22101X   23155.57617691  .00000881  00000-0  73434-4 0  9991,2 53548  53.2165 274.2095 0000746 103.0394 257.0682 15.08839444 43963,6917.882,95.438,540.263,539.231,0.0
53548.0,STARLINK-4513,PAYLOAD,2023-06-04 17:00:27,15.08845033,7.73e-05,53.2166,273.6149,101.9352,258.1726,0.00011979,1.62e-05,0.0,0 STARLINK-4513,1 53548U 22101X   23155.70865210  .00001620  00000-0  11979-3 0  9995,2 53548  53.2166 273.6149 0000773 101.9352 258.1726 15.08845033 43982,6917.865,95.437,540.265,539.195,0.0
53548.0,STARLINK-4513,PAYLOAD,2023-06-05 02:32:46,15.08838315,8.95e-05,53.217,271.8294,77.5448,282.5644,8.071e-05,9.97e-06,0.0,0 STARLINK-4513,1 53548U 22101X   23156.10609824  .00000997  00000-0  80710-4 0  9993,2 53548  53.2170 271.8294 0000895  77.5448 282.5644 15.08838315 44040,6917.886,95.438,540.37,539.131,0.0
53548.0,STARLINK-4513,PAYLOAD,2023-06-05 13:40:29,15.08835545,8.15e-05,53.2166,269.7471,76.3643,283.744,7.2249e-06,-1.73e-06,0.0,0 STARLINK-4513,1 53548U 22101X   23156.56978308 -.00000173  00000-0  72249-5 0  9995,2 53548  53.2166 269.7471 0000815  76.3643 283.7440 15.08835545 44111,6917.894,95.438,540.323,539.195,0.0
53548.0,STARLINK-4513,PAYLOAD,2023-06-05 15:15:52,15.08832738,8.92e-05,53.2161,269.4495,81.0828,279.0265,6.4263e-05,7.35e-06,0.0,0 STARLINK-4513,1 53548U 22101X   23156.63602281  .00000735  00000-0  64263-4 0  9996,2 53548  53.2161 269.4495 0000892  81.0828 279.0265 15.08832738 44127,6917.903,95.438,540.385,539.151,0.0
53548.0,STARLINK-4513,PAYLOAD,2023-06-06 11:55:52,15.08841545,7.85e-05,53.217,265.5845,74.1128,285.995,5.6979e-05,6.19e-06,0.0,0 STARLINK-4513,1 53548U 22101X   23157.49713796  .00000619  00000-0  56979-4 0  9991,2 53548  53.2170 265.5845 0000785  74.1128 285.9950 15.08841545 44257,6917.876,95.437,540.284,539.198,0.0
53548.0,STARLINK-4513,PAYLOAD,2023-06-06 16:42:01,15.08851169,8.42e-05,53.2167,264.6923,63.7964,296.3115,6.7991e-05,7.95e-06,0.0,0 STARLINK-4513,1 53548U 22101X   23157.69585128  .00000795  00000-0  67991-4 0  9990,2 53548  53.2167 264.6923 0000842  63.7964 296.3115 15.08851169 44281,6917.846,95.437,540.294,539.129,0.0
53548.0,STARLINK-4513,PAYLOAD,2023-06-06 18:17:24,15.08853982,7.17e-05,53.2167,264.3949,84.5899,275.5175,8.339e-05,1.04e-05,0.0,0 STARLINK-4513,1 53548U 22101X   23157.76208833  .00001040  00000-0  83390-4 0  9998,2 53548  53.2167 264.3949 0000717  84.5899 275.5175 15.08853982 44296,6917.838,95.437,540.199,539.207,0.0
53548.0,STARLINK-4513,PAYLOAD,2023-06-07 08:35:53,15.08834326,7.26e-05,53.2172,261.7185,76.4482,283.6591,7.0799e-05,8.39e-06,0.0,0 STARLINK-4513,1 53548U 22101X   23158.35826098  .00000839  00000-0  70799-4 0  9997,2 53548  53.2172 261.7185 0000726  76.4482 283.6591 15.08834326 44386,6917.898,95.438,540.265,539.26,0.0
53548.0,STARLINK-4513,PAYLOAD,2023-06-08 11:37:26,15.08841404,7.41e-05,53.2172,256.6627,88.0083,272.0994,4.2393e-05,3.87e-06,0.0,0 STARLINK-4513,1 53548U 22101X   23159.48433800  .00000387  00000-0  42393-4 0  9994,2 53548  53.2172 256.6627 0000741  88.0083 272.0994 15.08841404 44556,6917.876,95.437,540.254,539.228,0.0
53548.0,STARLINK-4513,PAYLOAD,2023-06-08 17:58:58,15.0885011,7.37e-05,53.2169,255.472,96.9174,263.1902,5.3296e-05,5.61e-06,0.0,0 STARLINK-4513,1 53548U 22101X   23159.74929093  .00000561  00000-0  53296-4 0  9995,2 53548  53.2169 255.4720 0000737  96.9174 263.1902 15.08850110 44595,6917.849,95.437,540.224,539.205,0.0
53548.0,STARLINK-4513,PAYLOAD,2023-06-09 06:42:04,15.08835901,6.17e-05,53.2175,253.0958,70.1362,289.9697,5.1421e-05,5.31e-06,0.0,0 STARLINK-4513,1 53548U 22101X   23160.27922108  .00000531  00000-0  51421-4 0  9990,2 53548  53.2175 253.0958 0000617  70.1362 289.9697 15.08835901 44676,6917.893,95.438,540.185,539.331,0.0
53548.0,STARLINK-4513,PAYLOAD,2023-06-09 09:52:50,15.08837597,7.67e-05,53.2178,252.5016,76.9636,283.1442,6.4834e-05,7.44e-06,0.0,0 STARLINK-4513,1 53548U 22101X   23160.41170009  .00000744  00000-0  64834-4 0  9999,2 53548  53.2178 252.5016 0000767  76.9636 283.1442 15.08837597 44691,6917.888,95.438,540.283,539.222,0.0
53548.0,STARLINK-4513,PAYLOAD,2023-06-09 13:03:36,15.0883897,7.65e-05,53.2169,251.9043,98.7769,261.331,7.6386e-05,9.28e-06,0.0,0 STARLINK-4513,1 53548U 22101X   23160.54417812  .00000928  00000-0  76386-4 0  9998,2 53548  53.2169 251.9043 0000765  98.7769 261.3310 15.08838970 44712,6917.884,95.438,540.278,539.219,0.0
